sat26013
1 26013U 91068Y   20046.83409137  .00000071  00000-0  37274-3 0  9997
2 26013  82.7159 183.1152 0026334 150.7864   2.5965 12.55250894931894
